ORBCOMM FM37            
1 33064U 08031E   25091.45022804  .00003197  00000+0  45219-3 0  9993
2 33064  48.4407 348.3591 0005339  42.3254 127.8606 14.79381000902686
ORBCOMM FM40            
1 33065U 08031F   25091.20236225  .00003833  00000+0  51023-3 0  9998
2 33065  48.4422 334.8328 0006459  55.5314  90.0705 14.81515590902743
VESSELSAT 1             
1 37840U 11058C   25091.60066971  .00000465  00000+0  10931-3 0  9990
2 37840  19.9607 197.3073 0013795  64.2740 295.9087 14.11332122695475
ORBCOMM FM109           
1 40086U 14040A   25091.50882302  .00001639  00000+0  38980-3 0  9991
2 40086  47.0052  18.3929 0002204 335.6458  24.4323 14.57998904569871
ORBCOMM FM107           
1 40087U 14040B   25091.12966851  .00001645  00000+0  39054-3 0  9992
2 40087  47.0059  21.1736 0001913 290.6582  69.4098 14.58060082569899
ORBCOMM FM106           
1 40088U 14040C   25091.59830166  .00002434  00000+0  44005-3 0  9992
2 40088  47.0592 207.1804 0015990  70.7485 289.5135 14.69188144572212
ORBCOMM FM111           
1 40089U 14040D   25091.30612194  .00005232  00000+0  61511-3 0  9991
2 40089  47.0013  69.0504 0030001 185.7981 174.2572 14.85735140578797
ORBCOMM FM104           
1 40090U 14040E   25091.58267654  .00001404  00000+0  35002-3 0  9993
2 40090  47.0057  51.7255 0016644 217.9292 142.0421 14.56486399569454
